[{"OBJECT_NAME":"STARLINK-3567","OBJECT_ID":"2022-022V","EPOCH":"2026-03-09T05:12:26.354016","MEAN_MOTION":15.08840488,"ECCENTRICITY":0.00017614,"INCLINATION":53.2206,"RA_OF_ASC_NODE":11.2434,"ARG_OF_PERICENTER":84.8005,"MEAN_ANOMALY":275.3188,"EPHEMERIS_TYPE":0,"CLASSIFICATION_TYPE":"U","NORAD_CAT_ID":51871,"ELEMENT_SET_NO":999,"REV_AT_EPOCH":22315,"BSTAR":-5.4139838e-5,"MEAN_MOTION_DOT":-1.15e-5,"MEAN_MOTION_DDOT":0},{"OBJECT_NAME":"OBJECT G","OBJECT_ID":"2024-205G","EPOCH":"2026-03-09T23:05:54.449664","MEAN_MOTION":15.09392775,"ECCENTRICITY":0.00211709,"INCLINATION":97.4199,"RA_OF_ASC_NODE":141.9686,"ARG_OF_PERICENTER":130.0324,"MEAN_ANOMALY":230.2768,"EPHEMERIS_TYPE":0,"CLASSIFICATION_TYPE":"U","NORAD_CAT_ID":61900,"ELEMENT_SET_NO":999,"REV_AT_EPOCH":7318,"BSTAR":0.00059967322,"MEAN_MOTION_DOT":9.576e-5,"MEAN_MOTION_DDOT":0}]
